{
  "type": "FeatureCollection",
  "features": [
    {
      "type": "Feature",
      "geometry": {
        "type": "Polygon",
        "coordinates": [
          [
            [
              80.33167530547476,
              21.882721793063556
            ],
            [
              80.36577881134627,
              21.882721793063556
            ],
            [
              80.36577881134627,
              21.916825298935066
            ],
            [
              80.33167530547476,
              21.916825298935066
            ],
            [
              80.33167530547476,
              21.882721793063556
            ]
          ]
        ]
      },
      "properties": {
        "id": "zone_001",
        "near_mine_id": "mine_001",
        "prospectivity_score": 0.31,
        "confidence": 0.53,
        "reserve_min": 46500,
        "reserve_max": 108500
      }
    },
    {
      "type": "Feature",
      "geometry": {
        "type": "Polygon",
        "coordinates": [
          [
            [
              80.08442355953618,
              21.78722852516384
            ],
            [
              80.1530434652617,
              21.78722852516384
            ],
            [
              80.1530434652617,
              21.85584843088937
            ],
            [
              80.08442355953618,
              21.85584843088937
            ],
            [
              80.08442355953618,
              21.78722852516384
            ]
          ]
        ]
      },
      "properties": {
        "id": "zone_002",
        "near_mine_id": "mine_001",
        "prospectivity_score": 0.45,
        "confidence": 0.79,
        "reserve_min": 67500,
        "reserve_max": 157500
      }
    },
    {
      "type": "Feature",
      "geometry": {
        "type": "Polygon",
        "coordinates": [
          [
            [
              80.04042446535115,
              21.943269387179658
            ],
            [
              80.07338775216138,
              21.943269387179658
            ],
            [
              80.07338775216138,
              21.976232673989884
            ],
            [
              80.04042446535115,
              21.976232673989884
            ],
            [
              80.04042446535115,
              21.943269387179658
            ]
          ]
        ]
      },
      "properties": {
        "id": "zone_003",
        "near_mine_id": "mine_002",
        "prospectivity_score": 0.68,
        "confidence": 0.42,
        "reserve_min": 102000,
        "reserve_max": 238000
      }
    },
    {
      "type": "Feature",
      "geometry": {
        "type": "Polygon",
        "coordinates": [
          [
            [
              80.13770375825074,
              21.539518550684193
            ],
            [
              80.17985717872443,
              21.539518550684193
            ],
            [
              80.17985717872443,
              21.58167197115788
            ],
            [
              80.13770375825074,
              21.58167197115788
            ],
            [
              80.13770375825074,
              21.539518550684193
            ]
          ]
        ]
      },
      "properties": {
        "id": "zone_004",
        "near_mine_id": "mine_002",
        "prospectivity_score": 0.9,
        "confidence": 0.45,
        "reserve_min": 135000,
        "reserve_max": 315000
      }
    },
    {
      "type": "Feature",
      "geometry": {
        "type": "Polygon",
        "coordinates": [
          [
            [
              79.11444449790605,
              22.123790590745777
            ],
            [
              79.15347198338866,
              22.123790590745777
            ],
            [
              79.15347198338866,
              22.16281807622838
            ],
            [
              79.11444449790605,
              22.16281807622838
            ],
            [
              79.11444449790605,
              22.123790590745777
            ]
          ]
        ]
      },
      "properties": {
        "id": "zone_005",
        "near_mine_id": "mine_003",
        "prospectivity_score": 0.61,
        "confidence": 0.6,
        "reserve_min": 91500,
        "reserve_max": 213500
      }
    },
    {
      "type": "Feature",
      "geometry": {
        "type": "Polygon",
        "coordinates": [
          [
            [
              79.15609999949571,
              22.025632602411594
            ],
            [
              79.22570124991438,
              22.025632602411594
            ],
            [
              79.22570124991438,
              22.095233852830265
            ],
            [
              79.15609999949571,
              22.095233852830265
            ],
            [
              79.15609999949571,
              22.025632602411594
            ]
          ]
        ]
      },
      "properties": {
        "id": "zone_006",
        "near_mine_id": "mine_003",
        "prospectivity_score": 0.48,
        "confidence": 0.68,
        "reserve_min": 72000,
        "reserve_max": 168000
      }
    },
    {
      "type": "Feature",
      "geometry": {
        "type": "Polygon",
        "coordinates": [
          [
            [
              79.08405358329072,
              22.12577854734708
            ],
            [
              79.15195719130374,
              22.12577854734708
            ],
            [
              79.15195719130374,
              22.193682155360094
            ],
            [
              79.08405358329072,
              22.193682155360094
            ],
            [
              79.08405358329072,
              22.12577854734708
            ]
          ]
        ]
      },
      "properties": {
        "id": "zone_007",
        "near_mine_id": "mine_003",
        "prospectivity_score": 0.42,
        "confidence": 0.49,
        "reserve_min": 63000,
        "reserve_max": 147000
      }
    },
    {
      "type": "Feature",
      "geometry": {
        "type": "Polygon",
        "coordinates": [
          [
            [
              74.39428812899587,
              22.564234256028527
            ],
            [
              74.42729072375191,
              22.564234256028527
            ],
            [
              74.42729072375191,
              22.597236850784572
            ],
            [
              74.39428812899587,
              22.597236850784572
            ],
            [
              74.39428812899587,
              22.564234256028527
            ]
          ]
        ]
      },
      "properties": {
        "id": "zone_008",
        "near_mine_id": "mine_004",
        "prospectivity_score": 0.3,
        "confidence": 0.6,
        "reserve_min": 45000,
        "reserve_max": 105000
      }
    },
    {
      "type": "Feature",
      "geometry": {
        "type": "Polygon",
        "coordinates": [
          [
            [
              74.46475557341861,
              22.82628671707174
            ],
            [
              74.50401462280085,
              22.82628671707174
            ],
            [
              74.50401462280085,
              22.86554576645398
            ],
            [
              74.46475557341861,
              22.86554576645398
            ],
            [
              74.46475557341861,
              22.82628671707174
            ]
          ]
        ]
      },
      "properties": {
        "id": "zone_009",
        "near_mine_id": "mine_004",
        "prospectivity_score": 0.72,
        "confidence": 0.72,
        "reserve_min": 108000,
        "reserve_max": 252000
      }
    },
    {
      "type": "Feature",
      "geometry": {
        "type": "Polygon",
        "coordinates": [
          [
            [
              85.42005428369602,
              21.372707856092088
            ],
            [
              85.46063646872237,
              21.372707856092088
            ],
            [
              85.46063646872237,
              21.413290041118444
            ],
            [
              85.42005428369602,
              21.413290041118444
            ],
            [
              85.42005428369602,
              21.372707856092088
            ]
          ]
        ]
      },
      "properties": {
        "id": "zone_010",
        "near_mine_id": "mine_005",
        "prospectivity_score": 0.77,
        "confidence": 0.67,
        "reserve_min": 115500,
        "reserve_max": 269500
      }
    },
    {
      "type": "Feature",
      "geometry": {
        "type": "Polygon",
        "coordinates": [
          [
            [
              85.39869152825388,
              21.81234340816886
            ],
            [
              85.43328258035233,
              21.81234340816886
            ],
            [
              85.43328258035233,
              21.846934460267303
            ],
            [
              85.39869152825388,
              21.846934460267303
            ],
            [
              85.39869152825388,
              21.81234340816886
            ]
          ]
        ]
      },
      "properties": {
        "id": "zone_011",
        "near_mine_id": "mine_005",
        "prospectivity_score": 0.43,
        "confidence": 0.47,
        "reserve_min": 64500,
        "reserve_max": 150500
      }
    },
    {
      "type": "Feature",
      "geometry": {
        "type": "Polygon",
        "coordinates": [
          [
            [
              85.3653417712662,
              21.489379482984383
            ],
            [
              85.39772729284675,
              21.489379482984383
            ],
            [
              85.39772729284675,
              21.521765004564937
            ],
            [
              85.3653417712662,
              21.521765004564937
            ],
            [
              85.3653417712662,
              21.489379482984383
            ]
          ]
        ]
      },
      "properties": {
        "id": "zone_012",
        "near_mine_id": "mine_005",
        "prospectivity_score": 0.78,
        "confidence": 0.67,
        "reserve_min": 117000,
        "reserve_max": 273000
      }
    },
    {
      "type": "Feature",
      "geometry": {
        "type": "Polygon",
        "coordinates": [
          [
            [
              84.8812187821657,
              21.813492069204244
            ],
            [
              84.9233824297875,
              21.813492069204244
            ],
            [
              84.9233824297875,
              21.855655716826035
            ],
            [
              84.8812187821657,
              21.855655716826035
            ],
            [
              84.8812187821657,
              21.813492069204244
            ]
          ]
        ]
      },
      "properties": {
        "id": "zone_013",
        "near_mine_id": "mine_006",
        "prospectivity_score": 0.54,
        "confidence": 0.52,
        "reserve_min": 81000,
        "reserve_max": 189000
      }
    },
    {
      "type": "Feature",
      "geometry": {
        "type": "Polygon",
        "coordinates": [
          [
            [
              84.86265531814297,
              21.87398893755881
            ],
            [
              84.91657678462461,
              21.87398893755881
            ],
            [
              84.91657678462461,
              21.927910404040453
            ],
            [
              84.86265531814297,
              21.927910404040453
            ],
            [
              84.86265531814297,
              21.87398893755881
            ]
          ]
        ]
      },
      "properties": {
        "id": "zone_014",
        "near_mine_id": "mine_006",
        "prospectivity_score": 0.83,
        "confidence": 0.73,
        "reserve_min": 124500,
        "reserve_max": 290500
      }
    },
    {
      "type": "Feature",
      "geometry": {
        "type": "Polygon",
        "coordinates": [
          [
            [
              84.615518935433,
              21.91222818456755
            ],
            [
              84.65467591206188,
              21.91222818456755
            ],
            [
              84.65467591206188,
              21.951385161196423
            ],
            [
              84.615518935433,
              21.951385161196423
            ],
            [
              84.615518935433,
              21.91222818456755
            ]
          ]
        ]
      },
      "properties": {
        "id": "zone_015",
        "near_mine_id": "mine_006",
        "prospectivity_score": 0.7,
        "confidence": 0.79,
        "reserve_min": 105000,
        "reserve_max": 244999
      }
    },
    {
      "type": "Feature",
      "geometry": {
        "type": "Polygon",
        "coordinates": [
          [
            [
              79.19336895058194,
              21.44974345012647
            ],
            [
              79.23414939162062,
              21.44974345012647
            ],
            [
              79.23414939162062,
              21.49052389116515
            ],
            [
              79.19336895058194,
              21.49052389116515
            ],
            [
              79.19336895058194,
              21.44974345012647
            ]
          ]
        ]
      },
      "properties": {
        "id": "zone_016",
        "near_mine_id": "mine_007",
        "prospectivity_score": 0.32,
        "confidence": 0.74,
        "reserve_min": 48000,
        "reserve_max": 112000
      }
    },
    {
      "type": "Feature",
      "geometry": {
        "type": "Polygon",
        "coordinates": [
          [
            [
              79.18090569366022,
              21.13230049395098
            ],
            [
              79.24754860517729,
              21.13230049395098
            ],
            [
              79.24754860517729,
              21.19894340546805
            ],
            [
              79.18090569366022,
              21.19894340546805
            ],
            [
              79.18090569366022,
              21.13230049395098
            ]
          ]
        ]
      },
      "properties": {
        "id": "zone_017",
        "near_mine_id": "mine_007",
        "prospectivity_score": 0.41,
        "confidence": 0.66,
        "reserve_min": 61499,
        "reserve_max": 143500
      }
    },
    {
      "type": "Feature",
      "geometry": {
        "type": "Polygon",
        "coordinates": [
          [
            [
              79.63200623697621,
              21.451433141639423
            ],
            [
              79.6783401607134,
              21.451433141639423
            ],
            [
              79.6783401607134,
              21.497767065376625
            ],
            [
              79.63200623697621,
              21.497767065376625
            ],
            [
              79.63200623697621,
              21.451433141639423
            ]
          ]
        ]
      },
      "properties": {
        "id": "zone_018",
        "near_mine_id": "mine_008",
        "prospectivity_score": 0.49,
        "confidence": 0.45,
        "reserve_min": 73500,
        "reserve_max": 171500
      }
    },
    {
      "type": "Feature",
      "geometry": {
        "type": "Polygon",
        "coordinates": [
          [
            [
              79.59698705387268,
              20.9664949115953
            ],
            [
              79.64680581471126,
              20.9664949115953
            ],
            [
              79.64680581471126,
              21.016313672433874
            ],
            [
              79.59698705387268,
              21.016313672433874
            ],
            [
              79.59698705387268,
              20.9664949115953
            ]
          ]
        ]
      },
      "properties": {
        "id": "zone_019",
        "near_mine_id": "mine_008",
        "prospectivity_score": 0.7,
        "confidence": 0.58,
        "reserve_min": 105000,
        "reserve_max": 244999
      }
    },
    {
      "type": "Feature",
      "geometry": {
        "type": "Polygon",
        "coordinates": [
          [
            [
              79.37201827818824,
              21.326299863234595
            ],
            [
              79.40554066989927,
              21.326299863234595
            ],
            [
              79.40554066989927,
              21.359822254945627
            ],
            [
              79.37201827818824,
              21.359822254945627
            ],
            [
              79.37201827818824,
              21.326299863234595
            ]
          ]
        ]
      },
      "properties": {
        "id": "zone_020",
        "near_mine_id": "mine_008",
        "prospectivity_score": 0.45,
        "confidence": 0.45,
        "reserve_min": 67500,
        "reserve_max": 157500
      }
    },
    {
      "type": "Feature",
      "geometry": {
        "type": "Polygon",
        "coordinates": [
          [
            [
              75.76495632196121,
              14.148946350431126
            ],
            [
              75.79500236465913,
              14.148946350431126
            ],
            [
              75.79500236465913,
              14.17899239312905
            ],
            [
              75.76495632196121,
              14.17899239312905
            ],
            [
              75.76495632196121,
              14.148946350431126
            ]
          ]
        ]
      },
      "properties": {
        "id": "zone_021",
        "near_mine_id": "mine_009",
        "prospectivity_score": 0.82,
        "confidence": 0.61,
        "reserve_min": 122999,
        "reserve_max": 287000
      }
    },
    {
      "type": "Feature",
      "geometry": {
        "type": "Polygon",
        "coordinates": [
          [
            [
              75.58106363547643,
              13.662522451226037
            ],
            [
              75.63596899038049,
              13.662522451226037
            ],
            [
              75.63596899038049,
              13.717427806130106
            ],
            [
              75.58106363547643,
              13.717427806130106
            ],
            [
              75.58106363547643,
              13.662522451226037
            ]
          ]
        ]
      },
      "properties": {
        "id": "zone_022",
        "near_mine_id": "mine_009",
        "prospectivity_score": 0.6,
        "confidence": 0.6,
        "reserve_min": 90000,
        "reserve_max": 210000
      }
    },
    {
      "type": "Feature",
      "geometry": {
        "type": "Polygon",
        "coordinates": [
          [
            [
              75.43023374296375,
              13.660967065111807
            ],
            [
              75.46547427212177,
              13.660967065111807
            ],
            [
              75.46547427212177,
              13.696207594269826
            ],
            [
              75.43023374296375,
              13.696207594269826
            ],
            [
              75.43023374296375,
              13.660967065111807
            ]
          ]
        ]
      },
      "properties": {
        "id": "zone_023",
        "near_mine_id": "mine_009",
        "prospectivity_score": 0.47,
        "confidence": 0.8,
        "reserve_min": 70500,
        "reserve_max": 164500
      }
    },
    {
      "type": "Feature",
      "geometry": {
        "type": "Polygon",
        "coordinates": [
          [
            [
              76.81388808949302,
              14.862855650017572
            ],
            [
              76.8682429561763,
              14.862855650017572
            ],
            [
              76.8682429561763,
              14.91721051670085
            ],
            [
              76.81388808949302,
              14.91721051670085
            ],
            [
              76.81388808949302,
              14.862855650017572
            ]
          ]
        ]
      },
      "properties": {
        "id": "zone_024",
        "near_mine_id": "mine_010",
        "prospectivity_score": 0.44,
        "confidence": 0.47,
        "reserve_min": 66000,
        "reserve_max": 154000
      }
    },
    {
      "type": "Feature",
      "geometry": {
        "type": "Polygon",
        "coordinates": [
          [
            [
              76.56135084543224,
              15.120503404201601
            ],
            [
              76.5950792134835,
              15.120503404201601
            ],
            [
              76.5950792134835,
              15.154231772252862
            ],
            [
              76.56135084543224,
              15.154231772252862
            ],
            [
              76.56135084543224,
              15.120503404201601
            ]
          ]
        ]
      },
      "properties": {
        "id": "zone_025",
        "near_mine_id": "mine_010",
        "prospectivity_score": 0.9,
        "confidence": 0.81,
        "reserve_min": 135000,
        "reserve_max": 315000
      }
    },
    {
      "type": "Feature",
      "geometry": {
        "type": "Polygon",
        "coordinates": [
          [
            [
              76.30047968945374,
              15.06686873650727
            ],
            [
              76.36376541640449,
              15.06686873650727
            ],
            [
              76.36376541640449,
              15.130154463458027
            ],
            [
              76.30047968945374,
              15.130154463458027
            ],
            [
              76.30047968945374,
              15.06686873650727
            ]
          ]
        ]
      },
      "properties": {
        "id": "zone_026",
        "near_mine_id": "mine_010",
        "prospectivity_score": 0.6,
        "confidence": 0.72,
        "reserve_min": 90000,
        "reserve_max": 210000
      }
    },
    {
      "type": "Feature",
      "geometry": {
        "type": "Polygon",
        "coordinates": [
          [
            [
              83.88949974617472,
              18.249294205761213
            ],
            [
              83.93838853745086,
              18.249294205761213
            ],
            [
              83.93838853745086,
              18.29818299703735
            ],
            [
              83.88949974617472,
              18.29818299703735
            ],
            [
              83.88949974617472,
              18.249294205761213
            ]
          ]
        ]
      },
      "properties": {
        "id": "zone_027",
        "near_mine_id": "mine_011",
        "prospectivity_score": 0.57,
        "confidence": 0.47,
        "reserve_min": 85499,
        "reserve_max": 199499
      }
    },
    {
      "type": "Feature",
      "geometry": {
        "type": "Polygon",
        "coordinates": [
          [
            [
              83.95962655920495,
              18.11436622256876
            ],
            [
              84.01947826102464,
              18.11436622256876
            ],
            [
              84.01947826102464,
              18.174217924388454
            ],
            [
              83.95962655920495,
              18.174217924388454
            ],
            [
              83.95962655920495,
              18.11436622256876
            ]
          ]
        ]
      },
      "properties": {
        "id": "zone_028",
        "near_mine_id": "mine_011",
        "prospectivity_score": 0.38,
        "confidence": 0.43,
        "reserve_min": 57000,
        "reserve_max": 133000
      }
    },
    {
      "type": "Feature",
      "geometry": {
        "type": "Polygon",
        "coordinates": [
          [
            [
              84.11264742798333,
              18.463605079606204
            ],
            [
              84.1562424377079,
              18.463605079606204
            ],
            [
              84.1562424377079,
              18.507200089330777
            ],
            [
              84.11264742798333,
              18.507200089330777
            ],
            [
              84.11264742798333,
              18.463605079606204
            ]
          ]
        ]
      },
      "properties": {
        "id": "zone_029",
        "near_mine_id": "mine_011",
        "prospectivity_score": 0.77,
        "confidence": 0.52,
        "reserve_min": 115500,
        "reserve_max": 269500
      }
    },
    {
      "type": "Feature",
      "geometry": {
        "type": "Polygon",
        "coordinates": [
          [
            [
              83.28913350986306,
              17.989703389969698
            ],
            [
              83.34261101875963,
              17.989703389969698
            ],
            [
              83.34261101875963,
              18.043180898866265
            ],
            [
              83.28913350986306,
              18.043180898866265
            ],
            [
              83.28913350986306,
              17.989703389969698
            ]
          ]
        ]
      },
      "properties": {
        "id": "zone_030",
        "near_mine_id": "mine_012",
        "prospectivity_score": 0.9,
        "confidence": 0.62,
        "reserve_min": 135000,
        "reserve_max": 315000
      }
    },
    {
      "type": "Feature",
      "geometry": {
        "type": "Polygon",
        "coordinates": [
          [
            [
              83.43314834662232,
              17.909157251029676
            ],
            [
              83.47695330429003,
              17.909157251029676
            ],
            [
              83.47695330429003,
              17.952962208697397
            ],
            [
              83.43314834662232,
              17.952962208697397
            ],
            [
              83.43314834662232,
              17.909157251029676
            ]
          ]
        ]
      },
      "properties": {
        "id": "zone_031",
        "near_mine_id": "mine_012",
        "prospectivity_score": 0.63,
        "confidence": 0.64,
        "reserve_min": 94500,
        "reserve_max": 220500
      }
    }
  ]
}